312P/NEAT,e,19.7622,144.7066,207.6492,3.470524,0.1524444,0.42741095,169.9543,10/15.0/2023,2000,g 16.0,4.0
# From MPEC 2021-S45
313P/Gibbs,e,10.9802,106.0067,254.8473,3.164164,0.1751118,0.23484095,223.5349,10/15.0/2023,2000,g 15.0,4.0
# From MPC105243
314P/Montani,e,3.9890,267.6114,213.8674,7.253909,0.0504482,0.41740994,129.2564,10/15.0/2023,2000,g  9.5,4.0
# From MPEC 2023-J29
315P/LONEOS,e,17.7327,68.7253,65.7705,4.939509,0.0897797,0.52130697,225.8366,10/15.0/2023,2000,g 11.0,4.0
# From MPC 92279
316P/LONEOS-Christensen,e,9.8213,192.2388,243.9573,4.409184,0.1064552,0.15735769,319.7183,10/15.0/2023,2000,g 13.5,4.0
# From MPEC 2020-C98
317P/WISE,e,11.9604,275.4702,334.8195,2.961790,0.1933627,0.57094722,215.4629,10/15.0/2023,2000,g 17.5,4.0
# From MPC102103
318P/McNaught-Hartley,e,17.8759,35.5565,313.3159,7.508000,0.0479091,0.67466042,139.4562,10/15.0/2023,2000,g  8.5,6.0
# From MPC 97499
319P/Catalina-McNaught,e,15.0946,111.3453,203.6672,3.564121,0.1464790,0.66641038,82.4247,10/15.0/2023,2000,g 15.0,4.0
# From MPC 96281
320P/McNaught,e,4.9046,295.9427,0.7870,3.094761,0.1810353,0.68496217,181.2952,10/15.0/2023,2000,g 20.5,4.0
# From MPC105243
321P/SOHO,e,20.0792,165.0115,172.7497,2.422783,0.2613559,0.98106185,0.0000,10/26.6101/2023,2000,g 20.0,4.0
# From MPC102103
322P/SOHO,e,11.4749,351.5165,56.8988,2.507668,0.2481984,0.97998248,0.0000,08/21.0867/2023,2000,g 19.0,4.0
# From MPEC 2016-Y36
323P/SOHO,e,5.3127,324.3734,353.0658,2.583360,0.2373705,0.98468879,0.0000,03/14.4722/2025,2000,g 20.0,4.0
# From MPEC 2021-W31
324P/LaSagra,e,21.4005,270.5809,57.5576,3.095186,0.1809981,0.15340365,161.6573,10/15.0/2023,2000,g 13.0,4.0
# From MPEC 2022-TA0
325P/Yang-Gao,e,16.7323,257.3369,344.2286,3.536945,0.1481705,0.59303178,83.6720,10/15.0/2023,2000,g 14.0,4.0
# From MPEC 2023-TM6
326P/Hill,e,2.4711,99.8022,278.6521,4.065785,0.1202230,0.31877517,350.8067,10/15.0/2023,2000,g 13.5,4.0
# From MPEC 2023-T65
327P/VanNess,e,36.2498,173.9852,185.0285,3.562021,0.1466086,0.56305911,59.7659,10/15.0/2023,2000,g 16.0,4.0
# From MPC109148
328P/LONEOS-Tucker,e,17.6747,341.6547,30.5931,4.188841,0.1149644,0.55271271,327.0107,10/15.0/2023,2000,g 14.5,4.0
# From MPC101101
329P/LINEAR-Catalina,e,21.7078,87.6852,343.5396,5.186386,0.0834462,0.67861620,239.7185,10/15.0/2023,2000,g 13.5,4.0
# From MPEC 2023-J29
330P/Catalina,e,15.7215,293.0794,188.8236,6.619669,0.0578695,0.54948257,150.7716,10/15.0/2023,2000,g 12.0,4.0
# From MPEC 2023-KD6
331P/Gibbs,e,9.7403,216.7527,184.7693,3.004753,0.1892304,0.04143891,209.0586,10/15.0/2023,2000,g 12.0,4.0
# From MPEC 2016-K18
332P/Ikeya-Murakami,e,9.3811,3.7656,152.2961,3.087160,0.1817043,0.48932930,143.1468,10/15.0/2023,2000,g 18.0,4.0
# From MPEC 2016-K18
332P-A/Ikeya-Murakami,e,9.3814,152.3102,3.7515,3.087158,0.1817046,0.48933150,143.1466,10/15.0/2023,2000,g  9.0,4.0
# From MPEC 2016-EI8
332P-B/Ikeya-Murakami,e,9.3805,3.8028,152.3711,3.082329,0.1821317,0.48970701,359.9699,03/17.0/2016,2000,g 19.0,4.0
# From MPEC 2016-K18
332P-C/Ikeya-Murakami,e,9.3804,152.3015,3.7519,3.087124,0.1817076,0.48933703,143.1632,10/15.0/2023,2000,g 16.5,4.0
# From MPEC 2016-ED0
332P-D/Ikeya-Murakami,e,9.3761,3.7923,152.4393,3.081138,0.1822373,0.48977814,359.9486,03/17.0/2016,2000,g 19.0,4.0
# From MPEC 2016-ED0
332P-E/Ikeya-Murakami,e,9.3774,3.8228,152.2825,3.079877,0.1823493,0.48922008,359.9889,03/17.0/2016,2000,g 21.0,4.0
# From MPEC 2016-ED0
332P-F/Ikeya-Murakami,e,9.5293,3.4757,152.8203,3.163214,0.1751908,0.49918860,359.8501,03/17.0/2016,2000,g 21.0,4.0
# From MPEC 2016-ED0
332P-G/Ikeya-Murakami,e,9.2523,3.6955,154.4000,3.050519,0.1849880,0.49200362,359.9006,03/19.0/2016,2000,g 19.0,4.0
# From MPC100285
332P-H/Ikeya-Murakami,e,9.3810,152.3021,3.7517,3.087306,0.1816915,0.48937260,143.0853,10/15.0/2023,2000,g 19.0,4.0
# From MPEC 2016-ED0
332P-I/Ikeya-Murakami,e,9.3791,3.8048,152.3297,3.081767,0.1821815,0.48955490,359.9360,03/17.0/2016,2000,g 20.5,2.0
# From MPEC 2016-EI8
332P-J/Ikeya-Murakami,e,9.4296,3.6729,152.7712,3.115165,0.1792596,0.49429435,359.8613,03/17.0/2016,2000,g 20.5,2.0
# From MPEC 2020-L06
333P/LINEAR,e,31.9852,115.5784,25.9830,4.225969,0.1134527,0.73663070,313.3906,10/15.0/2023,2000,g 15.0,4.0
# From MPEC 2023-J29
334P/NEAT,e,20.3829,90.5249,90.0530,6.832465,0.0551872,0.35076170,128.3114,10/15.0/2023,2000,g 10.5,4.0
# From MPEC 2023-M14
335P/Gibbs,e,7.2930,330.8319,162.2968,3.578026,0.1456259,0.54634331,62.4705,10/15.0/2023,2000,g 16.8,4.0
# From MPC105244
336P/McNaught,e,17.8238,298.2191,308.6814,5.037417,0.0871751,0.44377682,213.6904,10/15.0/2023,2000,g 13.5,4.0
# From MPEC 2023-J29
337P/WISE,e,15.3828,105.7993,161.4244,3.292738,0.1649561,0.49760378,77.5760,10/15.0/2023,2000,g 17.0,4.0
# From MPEC 2023-J29
338P/McNaught,e,25.3862,9.7956,4.5557,3.892167,0.1283562,0.41214421,322.3996,10/15.0/2023,2000,g 12.0,4.0
# From MPC101101
339P/Gibbs,e,5.7332,27.4790,172.7024,3.700831,0.1384379,0.63568326,6.2376,10/15.0/2023,2000,g 17.0,4.0
# From MPC133426
340P/Boattini,e,2.0782,291.6833,36.0315,4.249292,0.1125199,0.28052636,283.0325,10/15.0/2023,2000,g 14.3,4.0
# From MPEC 2023-J29
341P/Gibbs,e,3.7969,29.9670,312.3102,4.288938,0.1109633,0.41559749,298.3600,10/15.0/2023,2000,g 12.5,4.0
# From MPC101101
342P/SOHO,e,11.6879,73.3052,27.6510,3.041139,0.1858445,0.98286799,0.0000,10/19.3116/2021,2000,g  9.0,4.0
# From MPEC 2023-J29
343P/NEAT-LONEOS,e,5.5946,257.0761,137.5464,5.457448,0.0773072,0.58531276,189.1255,10/15.0/2023,2000,g 14.0,4.0
# From MPEC 2023-J29
344P/Read,e,3.4974,273.1046,140.5102,4.858993,0.0920205,0.42363055,233.1670,10/15.0/2023,2000,g 13.0,4.0
# From MPEC 2022-K19
345P/LINEAR,e,2.7278,154.5973,196.6192,4.032745,0.1217035,0.22138542,320.9674,10/15.0/2023,2000,g 12.0,4.0
# From MPEC 2022-K19
346P/Catalina,e,22.2124,102.4525,335.9878,4.471781,0.1042277,0.50365390,253.5588,10/15.0/2023,2000,g 14.0,4.0
# From MPEC 2023-TM6
347P/PANSTARRS,e,11.7548,261.0029,98.4363,3.607448,0.1438480,0.38669022,12.5099,10/15.0/2023,2000,g 15.0,4.0
# From MPEC 2022-ED3
348P/PANSTARRS,e,17.7366,312.9452,135.6838,3.151864,0.1761379,0.30726021,107.3153,10/15.0/2023,2000,g 14.0,4.0
# From MPEC 2022-K19
349P/Lemmon,e,5.4889,331.7564,255.8191,3.577690,0.1456465,0.29845157,327.1937,10/15.0/2023,2000,g 14.0,4.0
# From MPC111775
350P/McNaught,e,7.3636,65.2923,139.8049,4.082506,0.1194851,0.09405976,254.4607,10/15.0/2023,2000,g 14.0,4.0
# From MPC105244
351P/Wiegert-PANSTARRS,e,12.7776,352.6858,283.3604,4.440005,0.1053486,0.29485420,304.3125,10/15.0/2023,2000,g 12.5,4.0
# From MPEC 2023-J29
352P/Skiff,e,21.0148,27.9989,309.3986,6.650001,0.0574740,0.61732040,132.5194,10/15.0/2023,2000,g 13.2,4.0
# From MPEC 2020-AA5
353P/McNaught,e,28.4173,121.5481,230.4715,4.170555,0.1157213,0.47017456,245.4274,10/15.0/2023,2000,g 14.5,4.0
# From MPC105545
354P/LINEAR,e,5.2530,132.7463,320.0151,2.289999,0.2844141,0.12461501,0.3256,10/15.0/2023,2000,g 15.5,4.0
# From MPEC 2023-CD7
355P/LINEAR-NEAT,e,11.0472,51.4348,336.3363,3.468637,0.1525688,0.50793740,334.1518,10/15.0/2023,2000,g 15.5,2.0
# From MPEC 2022-F14
356P/WISE,e,9.6402,160.8255,226.0814,4.155407,0.1163547,0.35608087,247.0448,10/15.0/2023,2000,g 14.0,4.0
# From MPC114609
357P/Hill,e,6.3151,44.5819,1.4174,4.456738,0.1047559,0.43608008,205.5033,10/15.0/2023,2000,g 15.5,4.0
# From MPEC 2023-TM6
358P/PANSTARRS,e,11.0600,85.6855,299.7201,3.149170,0.1763640,0.23953808,355.2599,10/15.0/2023,2000,g 18.0,4.0
# From MPC110086
359P/LONEOS,e,10.2658,149.7854,200.2774,4.640654,0.0985905,0.32385718,221.1416,10/15.0/2023,2000,g 13.5,4.0
# From MPC108599
360P/WISE,e,24.1088,2.2198,354.2120,3.698311,0.1385795,0.49926371,310.8472,10/15.0/2023,2000,g 19.5,6.0
# From MPEC 2023-CD7
361P/Spacewatch,e,13.9039,203.2603,219.0250,4.934114,0.0899270,0.43942145,173.3751,10/15.0/2023,2000,g 12.0,4.0
# From MPEC 2017-V13
362P/,e,15.5562,192.4957,53.5779,3.973011,0.1244585,0.27867566,325.2327,10/15.0/2023,2000,g 12.9,2.0
# From MPC114609
363P/Lemmon,e,5.3928,146.7102,340.9107,3.573974,0.1458737,0.51919110,302.3458,10/15.0/2023,2000,g 17.5,4.0
# From MPEC 2023-TM6
364P/PANSTARRS,e,12.1377,46.1473,212.0331,2.880074,0.2016502,0.72174322,31.0493,10/15.0/2023,2000,g 17.0,2.0
# From MPC111775
365P/PANSTARRS,e,9.8493,86.6581,67.4283,3.155890,0.1758010,0.58132436,0.9857,10/15.0/2023,2000,g 17.0,4.0
# From MPC114610
366P/Spacewatch,e,8.8570,70.7240,153.0429,3.497769,0.1506667,0.34819164,288.5706,10/15.0/2023,2000,g 15.0,4.0
# From MPC112395
367P/Catalina,e,8.4597,58.6614,172.7784,3.509088,0.1499383,0.27974554,291.7949,10/15.0/2023,2000,g 17.5,2.0
# From MPC114610
368P/NEAT,e,15.4795,257.8864,118.9143,5.531223,0.0757656,0.62660992,140.5408,10/15.0/2023,2000,g 14.0,4.0
# From MPC114610
369P/Hill,e,10.3232,47.2989,13.1681,4.380474,0.1075034,0.55577537,196.0188,10/15.0/2023,2000,g 15.0,4.0
# From MPEC 2021-F20
370P/NEAT,e,19.4228,55.0826,356.7151,6.435890,0.0603658,0.61555550,117.7835,10/15.0/2023,2000,g 13.0,4.0
# From MPC114610
371P/LINEAR-Skiff,e,17.3832,67.2871,308.5444,4.180438,0.1153112,0.47708468,211.4707,10/15.0/2023,2000,g 16.0,4.0
# From MPEC 2020-K19
372P/McNaught,e,9.5085,27.5484,325.9994,4.509540,0.1029214,0.15213346,186.9327,10/15.0/2023,2000,g 13.5,4.0
# From MPEC 2021-F20
373P/Rinner,e,13.7705,231.9473,221.0299,3.799620,0.1330742,0.39334351,219.4637,10/15.0/2023,2000,g 14.5,4.0
# From MPC114610
374P/Larson,e,10.7678,7.9174,51.4671,4.971053,0.0889265,0.46369156,154.3863,10/15.0/2023,2000,g 14.0,4.0
# From MPEC 2021-F20
375P/Hill,e,17.3633,359.9224,119.3623,5.547963,0.0754230,0.65942243,132.6334,10/15.0/2023,2000,g 16.0,4.0
# From MPEC 2022-K19
376P/LONEOS,e,1.1669,313.0180,285.3384,5.759391,0.0713082,0.51466079,106.1217,10/15.0/2023,2000,g 12.5,4.0
# From MPEC 2022-N37
377P/Scotti,e,9.0241,226.0585,354.9413,6.700123,0.0568303,0.25110624,67.7192,10/15.0/2023,2000,g  9.5,4.0
# From MPEC 2023-T65
378P/McNaught,e,19.1005,93.9230,193.4948,6.306576,0.0622320,0.46630256,68.2149,10/15.0/2023,2000,g 12.0,4.0
# From MPC115889
379P/Spacewatch,e,12.4596,30.5998,183.9199,3.497828,0.1506629,0.34776183,230.1431,10/15.0/2023,2000,g 15.0,4.0
